{
  "type": "FeatureCollection",
  "features": [
    {
      "type": "Feature",
      "properties": {
        "norad_id": 43823,
        "name": "GEO-KOMPSAT-2A",
        "group": "weather",
        "lat": 0.009767207856251814,
        "lon": 101.10522915966433,
        "alt_km": 35786.65375096704,
        "timestamp": "2025-12-09T16:56:36.222711+00:00",
        "meta_object_name": "GEO-KOMPSAT-2A",
        "meta_object_id": "2018-100A",
        "meta_epoch": "2025-12-08T09:04:40.751616",
        "meta_mean_motion": 1.00270893,
        "meta_eccentricity": 1.774e-05,
        "meta_inclination": 0.0576,
        "meta_ra_of_asc_node": 113.8278,
        "meta_arg_of_pericenter": 87.1447,
        "meta_mean_anomaly": 140.8536,
        "meta_ephemeris_type": 0,
        "meta_classification_type": "U",
        "meta_norad_cat_id": 43823,
        "meta_element_set_no": 999,
        "meta_rev_at_epoch": 2571,
        "meta_bstar": 0,
        "meta_mean_motion_dot": -3.41e-06,
        "meta_mean_motion_ddot": 0,
        "tle_line1": "1 43823U 18100A   25342.37824944 -.00000341  00000+0  00000+0 0  9994",
        "tle_line2": "2 43823   0.0576 113.8278 0000177  87.1447 140.8536  1.00270893 25718"
      },
      "geometry": {
        "type": "Point",
        "coordinates": [
          101.10522915966433,
          0.009767207856251814
        ]
      }
    },
    {
      "type": "Feature",
      "properties": {
        "norad_id": 44387,
        "name": "METEOR-M2 2",
        "group": "weather",
        "lat": -50.92385570645081,
        "lon": -25.480039627853024,
        "alt_km": 818.4788135260897,
        "timestamp": "2025-12-09T16:56:36.222722+00:00",
        "meta_object_name": "METEOR-M2 2",
        "meta_object_id": "2019-038A",
        "meta_epoch": "2025-12-09T12:07:41.490912",
        "meta_mean_motion": 14.24289219,
        "meta_eccentricity": 0.0001095,
        "meta_inclination": 98.897,
        "meta_ra_of_asc_node": 323.1941,
        "meta_arg_of_pericenter": 153.6787,
        "meta_mean_anomaly": 206.4447,
        "meta_ephemeris_type": 0,
        "meta_classification_type": "U",
        "meta_norad_cat_id": 44387,
        "meta_element_set_no": 999,
        "meta_rev_at_epoch": 33429,
        "meta_bstar": 0.00014348,
        "meta_mean_motion_dot": 2.85e-06,
        "meta_mean_motion_ddot": 0,
        "tle_line1": "1 44387U 19038A   25343.50534133  .00000285  00000+0  14348-3 0  9995",
        "tle_line2": "2 44387  98.8970 323.1941 0001095 153.6787 206.4447 14.24289219334294"
      },
      "geometry": {
        "type": "Point",
        "coordinates": [
          -25.480039627853024,
          -50.92385570645081
        ]
      }
    },
    {
      "type": "Feature",
      "properties": {
        "norad_id": 47719,
        "name": "ARKTIKA-M 1",
        "group": "weather",
        "lat": 56.501327811311434,
        "lon": 134.23159059554897,
        "alt_km": 33173.04041629733,
        "timestamp": "2025-12-09T16:56:36.222736+00:00",
        "meta_object_name": "ARKTIKA-M 1",
        "meta_object_id": "2021-016A",
        "meta_epoch": "2025-12-09T02:05:46.689216",
        "meta_mean_motion": 2.00743922,
        "meta_eccentricity": 0.7204271,
        "meta_inclination": 63.1782,
        "meta_ra_of_asc_node": 84.5148,
        "meta_arg_of_pericenter": 269.1088,
        "meta_mean_anomaly": 15.6099,
        "meta_ephemeris_type": 0,
        "meta_classification_type": "U",
        "meta_norad_cat_id": 47719,
        "meta_element_set_no": 999,
        "meta_rev_at_epoch": 3497,
        "meta_bstar": 0,
        "meta_mean_motion_dot": -3.4e-07,
        "meta_mean_motion_ddot": 0,
        "tle_line1": "1 47719U 21016A   25343.08734594 -.00000034  00000+0  00000+0 0  9991",
        "tle_line2": "2 47719  63.1782  84.5148 7204271 269.1088  15.6099  2.00743922 34976"
      },
      "geometry": {
        "type": "Point",
        "coordinates": [
          134.23159059554897,
          56.501327811311434
        ]
      }
    },
    {
      "type": "Feature",
      "properties": {
        "norad_id": 49008,
        "name": "FENGYUN 3E",
        "group": "weather",
        "lat": -43.7189460451509,
        "lon": -7.271026329968953,
        "alt_km": 831.9868404295166,
        "timestamp": "2025-12-09T16:56:36.222758+00:00",
        "meta_object_name": "FENGYUN 3E",
        "meta_object_id": "2021-062A",
        "meta_epoch": "2025-12-09T12:04:41.640672",
        "meta_mean_motion": 14.19879046,
        "meta_eccentricity": 6.06e-05,
        "meta_inclination": 98.7472,
        "meta_ra_of_asc_node": 344.0624,
        "meta_arg_of_pericenter": 293.4891,
        "meta_mean_anomaly": 66.6222,
        "meta_ephemeris_type": 0,
        "meta_classification_type": "U",
        "meta_norad_cat_id": 49008,
        "meta_element_set_no": 999,
        "meta_rev_at_epoch": 22966,
        "meta_bstar": 5.5388e-05,
        "meta_mean_motion_dot": 7.4e-07,
        "meta_mean_motion_ddot": 0,
        "tle_line1": "1 49008U 21062A   25343.50325973  .00000074  00000+0  55388-4 0  9996",
        "tle_line2": "2 49008  98.7472 344.0624 0000606 293.4891  66.6222 14.19879046229669"
      },
      "geometry": {
        "type": "Point",
        "coordinates": [
          -7.271026329968953,
          -43.7189460451509
        ]
      }
    },
    {
      "type": "Feature",
      "properties": {
        "norad_id": 51850,
        "name": "GOES 18",
        "group": "weather",
        "lat": 0.0029940194493199047,
        "lon": -164.1694760897812,
        "alt_km": 35787.041101988354,
        "timestamp": "2025-12-09T16:56:36.222772+00:00",
        "meta_object_name": "GOES 18",
        "meta_object_id": "2022-021A",
        "meta_epoch": "2025-12-09T12:00:33.174144",
        "meta_mean_motion": 1.00271048,
        "meta_eccentricity": 7.26e-05,
        "meta_inclination": 0.0386,
        "meta_ra_of_asc_node": 155.385,
        "meta_arg_of_pericenter": 145.2667,
        "meta_mean_anomaly": 180.9753,
        "meta_ephemeris_type": 0,
        "meta_classification_type": "U",
        "meta_norad_cat_id": 51850,
        "meta_element_set_no": 999,
        "meta_rev_at_epoch": 469,
        "meta_bstar": 0,
        "meta_mean_motion_dot": 9.9e-07,
        "meta_mean_motion_ddot": 0,
        "tle_line1": "1 51850U 22021A   25343.50038396  .00000099  00000+0  00000+0 0  9993",
        "tle_line2": "2 51850   0.0386 155.3850 0000726 145.2667 180.9753  1.00271048  4696"
      },
      "geometry": {
        "type": "Point",
        "coordinates": [
          -164.1694760897812,
          0.0029940194493199047
        ]
      }
    },
    {
      "type": "Feature",
      "properties": {
        "norad_id": 54234,
        "name": "NOAA 21 (JPSS-2)",
        "group": "weather",
        "lat": -33.66944258992985,
        "lon": -74.06218729332117,
        "alt_km": 832.7298824906911,
        "timestamp": "2025-12-09T16:56:36.222784+00:00",
        "meta_object_name": "NOAA 21 (JPSS-2)",
        "meta_object_id": "2022-150A",
        "meta_epoch": "2025-12-09T10:20:13.632576",
        "meta_mean_motion": 14.19522925,
        "meta_eccentricity": 0.0002346,
        "meta_inclination": 98.7458,
        "meta_ra_of_asc_node": 279.7803,
        "meta_arg_of_pericenter": 44.497,
        "meta_mean_anomaly": 315.6395,
        "meta_ephemeris_type": 0,
        "meta_classification_type": "U",
        "meta_norad_cat_id": 54234,
        "meta_element_set_no": 999,
        "meta_rev_at_epoch": 15962,
        "meta_bstar": 0.00012401,
        "meta_mean_motion_dot": 2.17e-06,
        "meta_mean_motion_ddot": 0,
        "tle_line1": "1 54234U 22150A   25343.43071334  .00000217  00000+0  12401-3 0  9990",
        "tle_line2": "2 54234  98.7458 279.7803 0002346  44.4970 315.6395 14.19522925159625"
      },
      "geometry": {
        "type": "Point",
        "coordinates": [
          -74.06218729332117,
          -33.66944258992985
        ]
      }
    },
    {
      "type": "Feature",
      "properties": {
        "norad_id": 54743,
        "name": "METEOSAT-12 (MTG-I1)",
        "group": "weather",
        "lat": -0.6230626837477355,
        "lon": -27.355889516502227,
        "alt_km": 35783.890444091594,
        "timestamp": "2025-12-09T16:56:36.222796+00:00",
        "meta_object_name": "METEOSAT-12 (MTG-I1)",
        "meta_object_id": "2022-170C",
        "meta_epoch": "2025-12-09T06:50:38.879808",
        "meta_mean_motion": 1.00275177,
        "meta_eccentricity": 0.0001445,
        "meta_inclination": 0.7267,
        "meta_ra_of_asc_node": 31.0604,
        "meta_arg_of_pericenter": 223.8448,
        "meta_mean_anomaly": 285.8144,
        "meta_ephemeris_type": 0,
        "meta_classification_type": "U",
        "meta_norad_cat_id": 54743,
        "meta_element_set_no": 999,
        "meta_rev_at_epoch": 1107,
        "meta_bstar": 0,
        "meta_mean_motion_dot": -4e-08,
        "meta_mean_motion_ddot": 0,
        "tle_line1": "1 54743U 22170C   25343.28517222 -.00000004  00000+0  00000+0 0  9994",
        "tle_line2": "2 54743   0.7267  31.0604 0001445 223.8448 285.8144  1.00275177 11077"
      },
      "geometry": {
        "type": "Point",
        "coordinates": [
          -27.355889516502227,
          -0.6230626837477355
        ]
      }
    }
  ]
}